IRIDIUM 144             
1 43249U 18030A   24001.93767435  .00000376  00000+0  12718-3 0  9992
2 43249  86.3972 305.3975 0002122  82.4249 277.7187 14.34218842301535
IRIDIUM 149             
1 43250U 18030B   24001.38587351  .00000036  00000+0  58040-5 0  9993
2 43250  86.3972 305.6049 0001981  78.6839 281.4579 14.34217152301479
IRIDIUM 157             
1 43251U 18030C   24002.38165889  .00000386  00000+0  13070-3 0  9993
2 43251  86.3974 305.2219 0002266  89.5038 270.6417 14.34216832301594
IRIDIUM 140             
1 43252U 18030D   24002.33091737  .00000494  00000+0  16946-3 0  9994
2 43252  86.3973 305.2582 0002187  74.4136 285.7301 14.34216104301648
IRIDIUM 145             
1 43253U 18030E   24001.89962059  .00000377  00000+0  12755-3 0  9993
2 43253  86.3973 305.4124 0001962  79.9503 280.1914 14.34219426301516
IRIDIUM 146             
1 43254U 18030F   24002.36896887  .00000083  00000+0  22658-4 0  9990
2 43254  86.3973 305.2319 0001955  80.6417 279.4999 14.34215522301591
IRIDIUM 148             
1 43255U 18030G   24001.91865087  .00000386  00000+0  13061-3 0  9992
2 43255  86.3974 305.4496 0001797  87.5065 272.6337 14.34217687301562
IRIDIUM 142             
1 43256U 18030H   24001.88693595  .00000396  00000+0  13441-3 0  9995
2 43256  86.3970 305.3842 0001924  84.6154 275.5261 14.34219423301526
